NORAD_CAT_ID,OBJECT_NAME,OBJECT_TYPE,EPOCH,MEAN_MOTION,ECCENTRICITY,INCLINATION,RA_OF_ASC_NODE,ARG_OF_PERICENTER,MEAN_ANOMALY,BSTAR,MEAN_MOTION_DOT,MEAN_MOTION_DDOT,TLE_LINE0,TLE_LINE1,TLE_LINE2,SEMIMAJOR_AXIS,PERIOD,APOGEE,PERIGEE,DECAYED
55926.0,STARLINK-5921,PAYLOAD,2024-01-25 10:48:42,14.98332498,0.0002651,70.0003,76.713,261.7893,98.2965,-3.7311e-06,-1.37e-06,0.0,0 STARLINK-5921,1 55926U 23037N   24025.45049140 -.00000137  00000-0 -37311-5 0  9995,2 55926  70.0003  76.7130 0002651 261.7893  98.2965 14.98332498 48342,6950.185,96.107,573.893,570.208,0.0
55926.0,STARLINK-5921,PAYLOAD,2024-01-25 12:24:50,14.98332252,0.0002638,70.0003,76.5448,260.5439,99.5422,-4.757e-06,-1.5e-06,0.0,0 STARLINK-5921,1 55926U 23037N   24025.51725140 -.00000150  00000-0 -47570-5 0  9996,2 55926  70.0003  76.5448 0002638 260.5439  99.5422 14.98332252 48014,6950.186,96.107,573.884,570.217,0.0
55926.0,STARLINK-5921,PAYLOAD,2024-01-26 10:50:43,14.98330483,0.0002722,69.9999,74.1875,260.5412,99.5439,4.9742e-05,5.01e-06,0.0,0 STARLINK-5921,1 55926U 23037N   24026.45188995  .00000501  00000-0  49742-4 0  9991,2 55926  69.9999  74.1875 0002722 260.5412  99.5439 14.98330483 48492,6950.191,96.107,573.948,570.165,0.0
55926.0,STARLINK-5921,PAYLOAD,2024-01-26 12:26:51,14.98330719,0.0002721,69.9999,74.0192,260.8802,99.2049,5.067e-05,5.12e-06,0.0,0 STARLINK-5921,1 55926U 23037N   24026.51864970  .00000512  00000-0  50670-4 0  9996,2 55926  69.9999  74.0192 0002721 260.8802  99.2049 14.98330719 48168,6950.191,96.107,573.947,570.165,0.0
55926.0,STARLINK-5921,PAYLOAD,2024-01-27 12:28:52,14.98326544,0.0002742,69.9998,71.4936,265.2792,94.8054,-4.9181e-05,-6.8e-06,0.0,0 STARLINK-5921,1 55926U 23037N   24027.52005573 -.00000680  00000-0 -49181-4 0  9997,2 55926  69.9998  71.4936 0002742 265.2792  94.8054 14.98326544 48656,6950.204,96.107,573.974,570.163,0.0
55926.0,STARLINK-5921,PAYLOAD,2024-01-28 12:30:53,14.98329816,0.0002831,69.9996,68.9686,267.3868,92.6967,-1.8464e-05,-3.13e-06,0.0,0 STARLINK-5921,1 55926U 23037N   24028.52145334 -.00000313  00000-0 -18464-4 0  9991,2 55926  69.9996  68.9686 0002831 267.3868  92.6967 14.98329816 48466,6950.193,96.107,574.026,570.091,0.0
55926.0,STARLINK-5921,PAYLOAD,2024-01-29 10:56:46,14.98332371,0.000291,69.9995,66.6118,267.7211,92.3615,7.5048e-05,8.03e-06,0.0,0 STARLINK-5921,1 55926U 23037N   24029.45608859  .00000803  00000-0  75048-4 0  9993,2 55926  69.9995  66.6118 0002910 267.7211  92.3615 14.98332371 48607,6950.186,96.107,574.073,570.028,0.0
55926.0,STARLINK-5921,PAYLOAD,2024-01-30 04:34:15,14.98327863,0.0002821,69.9997,64.76,268.8948,91.1888,2.1356e-06,-6.7e-07,0.0,0 STARLINK-5921,1 55926U 23037N   24030.19045339 -.00000067  00000-0  21356-5 0  9991,2 55926  69.9997  64.7600 0002821 268.8948  91.1888 14.98327863 49053,6950.199,96.107,574.025,570.104,0.0
55926.0,STARLINK-5921,PAYLOAD,2024-01-30 12:34:55,14.98328128,0.0002804,69.9998,63.9185,268.5435,91.5403,4.6642e-06,-3.7e-07,0.0,0 STARLINK-5921,1 55926U 23037N   24030.52425338 -.00000037  00000-0  46642-5 0  9991,2 55926  69.9998  63.9185 0002804 268.5435  91.5403 14.98328128 48761,6950.199,96.107,574.013,570.115,0.0
55926.0,STARLINK-5921,PAYLOAD,2024-01-31 11:00:48,14.98333217,0.0002778,69.9998,61.5617,268.8242,91.2599,-4.9448e-06,-1.52e-06,0.0,0 STARLINK-5921,1 55926U 23037N   24031.45888909 -.00000152  00000-0 -49448-5 0  9997,2 55926  69.9998  61.5617 0002778 268.8242  91.2599 14.98333217 49246,6950.183,96.107,573.979,570.117,0.0
55926.0,STARLINK-5921,PAYLOAD,2024-02-01 11:02:49,14.9832758,0.000278,69.9997,59.0368,265.351,94.7331,7.5764e-06,-3e-08,0.0,0 STARLINK-5921,1 55926U 23037N   24032.46029149 -.00000003  00000-0  75764-5 0  9996,2 55926  69.9997  59.0368 0002780 265.3510  94.7331 14.98327580 49397,6950.2,96.107,573.998,570.133,0.0
55926.0,STARLINK-5921,PAYLOAD,2024-02-02 11:04:50,14.98327228,0.0002752,69.9998,56.5118,263.4566,96.6279,-3.9548e-05,-5.65e-06,0.0,0 STARLINK-5921,1 55926U 23037N   24033.46169374 -.00000565  00000-0 -39548-4 0  9995,2 55926  69.9998  56.5118 0002752 263.4566  96.6279 14.98327228 49540,6950.201,96.107,573.979,570.154,0.0
55926.0,STARLINK-5921,PAYLOAD,2024-02-03 11:06:51,14.98329288,0.0002858,69.9996,53.9868,266.2291,93.8542,1.9829e-05,1.44e-06,0.0,0 STARLINK-5921,1 55926U 23037N   24034.46309127  .00000144  00000-0  19829-4 0  9999,2 55926  69.9996  53.9868 0002858 266.2291  93.8542 14.98329288 49690,6950.195,96.107,574.046,570.074,0.0
55926.0,STARLINK-5921,PAYLOAD,2024-02-03 19:07:31,14.98329744,0.0002905,69.9996,53.1442,269.2528,90.8299,3.6715e-05,3.45e-06,0.0,0 STARLINK-5921,1 55926U 23037N   24034.79689060  .00000345  00000-0  36715-4 0  9998,2 55926  69.9996  53.1442 0002905 269.2528  90.8299 14.98329744 49401,6950.194,96.107,574.078,570.04,0.0
55926.0,STARLINK-5921,PAYLOAD,2024-02-04 11:08:51,14.98335331,0.0002961,69.9995,51.4608,270.495,89.5869,8.9899e-05,9.8e-06,0.0,0 STARLINK-5921,1 55926U 23037N   24035.46448440  .00000980  00000-0  89899-4 0  9994,2 55926  69.9995  51.4608 0002961 270.4950  89.5869 14.98335331 49845,6950.176,96.107,574.099,569.983,0.0
55926.0,STARLINK-5921,PAYLOAD,2024-02-05 04:46:20,14.98327486,0.0002811,69.9999,49.6092,272.2259,87.8579,-2.1974e-05,-3.55e-06,0.0,0 STARLINK-5921,1 55926U 23037N   24036.19885198 -.00000355  00000-0 -21974-4 0  9998,2 55926  69.9999  49.6092 0002811 272.2259  87.8579 14.98327486 49954,6950.201,96.107,574.019,570.112,0.0
55926.0,STARLINK-5921,PAYLOAD,2024-02-05 11:10:52,14.98329403,0.0002767,70.0001,48.9359,272.8749,87.2093,3.5165e-06,-5.1e-07,0.0,0 STARLINK-5921,1 55926U 23037N   24036.46589028 -.00000051  00000-0  35165-5 0  9991,2 55926  70.0001  48.9359 0002767 272.8749  87.2093 14.98329403 49652,6950.195,96.107,573.983,570.137,0.0
55926.0,STARLINK-5921,PAYLOAD,2024-02-06 04:48:21,14.98333611,0.0002781,70.0001,47.0843,272.3958,87.6882,-3.6184e-05,-5.25e-06,0.0,0 STARLINK-5921,1 55926U 23037N   24037.20024740 -.00000525  00000-0 -36184-4 0  9997,2 55926  70.0001  47.0843 0002781 272.3958  87.6882 14.98333611 50101,6950.182,96.107,573.98,570.114,0.0
55926.0,STARLINK-5921,PAYLOAD,2024-02-06 09:36:45,14.9833302,0.0002693,70.0003,46.5798,269.5187,90.5664,-1.0368e-05,-2.17e-06,0.0,0 STARLINK-5921,1 55926U 23037N   24037.40052656 -.00000217  00000-0 -10368-4 0  9990,2 55926  70.0003  46.5798 0002693 269.5187  90.5664 14.98333020 49798,6950.184,96.107,573.92,570.177,0.0
55926.0,STARLINK-5921,PAYLOAD,2024-02-07 09:38:46,14.98329923,0.0002756,70.0002,44.0549,266.313,93.7714,3.3004e-05,3.01e-06,0.0,0 STARLINK-5921,1 55926U 23037N   24038.40192577  .00000301  00000-0  33004-4 0  9992,2 55926  70.0002  44.0549 0002756 266.3130  93.7714 14.98329923 50281,6950.193,96.107,573.974,570.143,0.0
55926.0,STARLINK-5921,PAYLOAD,2024-02-07 17:39:27,14.98326633,0.0002767,70.0002,43.2133,270.8064,89.2778,-3.3347e-05,-4.91e-06,0.0,0 STARLINK-5921,1 55926U 23037N   24038.73573006 -.00000491  00000-0 -33347-4 0  9990,2 55926  70.0002  43.2133 0002767 270.8064  89.2778 14.98326633 49990,6950.203,96.107,573.991,570.145,0.0
55926.0,STARLINK-5921,PAYLOAD,2024-02-08 09:40:47,14.98327461,0.0002955,69.9998,41.5299,268.933,91.149,-5.5544e-05,-7.56e-06,0.0,0 STARLINK-5921,1 55926U 23037N   24039.40333079 -.00000756  00000-0 -55544-4 0  9996,2 55926  69.9998  41.5299 0002955 268.9330  91.1490 14.98327461 50432,6950.201,96.107,574.12,570.012,0.0
55926.0,STARLINK-5921,PAYLOAD,2024-02-09 09:42:48,14.9833395,0.0002992,69.9999,39.0049,268.9872,91.0945,3.1257e-05,2.8e-06,0.0,0 STARLINK-5921,1 55926U 23037N   24040.40472451  .00000280  00000-0  31257-4 0  9991,2 55926  69.9999  39.0049 0002992 268.9872  91.0945 14.98333950 50580,6950.181,96.107,574.125,569.966,0.0
55926.0,STARLINK-5921,PAYLOAD,2024-02-10 03:20:17,14.98325684,0.0002998,70.0001,37.1535,268.9487,91.1329,5.3911e-05,5.5e-06,0.0,0 STARLINK-5921,1 55926U 23037N   24041.13908938  .00000550  00000-0  53911-4 0  9997,2 55926  70.0001  37.1535 0002998 268.9487  91.1329 14.98325684 50698,6950.206,96.107,574.155,569.988,0.0
55926.0,STARLINK-5921,PAYLOAD,2024-02-10 09:44:49,14.9832891,0.0002907,70.0003,36.4801,267.4858,92.5968,5.7249e-05,5.9e-06,0.0,0 STARLINK-5921,1 55926U 23037N   24041.40612766  .00000590  00000-0  57249-4 0  9990,2 55926  70.0003  36.4801 0002907 267.4858  92.5968 14.98328910 50390,6950.196,96.107,574.082,570.041,0.0
55926.0,STARLINK-5921,PAYLOAD,2024-02-11 03:22:18,14.98332534,0.0002808,70.0005,34.6288,266.2302,93.8536,1.2896e-05,6.1e-07,0.0,0 STARLINK-5921,1 55926U 23037N   24042.14048624  .00000061  00000-0  12896-4 0  9990,2 55926  70.0005  34.6288 0002808 266.2302  93.8536 14.98332534 50844,6950.185,96.107,574.002,570.098,0.0
55926.0,STARLINK-5921,PAYLOAD,2024-02-11 08:10:41,14.98334531,0.0002768,70.0006,34.124,265.2879,94.7964,3.6502e-05,3.43e-06,0.0,0 STARLINK-5921,1 55926U 23037N   24042.34076381  .00000343  00000-0  36502-4 0  9996,2 55926  70.0006  34.1240 0002768 265.2879  94.7964 14.98334531 50531,6950.179,96.107,573.968,570.12,0.0
55926.0,STARLINK-5921,PAYLOAD,2024-02-11 22:35:55,14.983235,0.0002427,70.001,32.6088,261.2238,98.8646,-4.5409e-05,-6.35e-06,0.0,0 STARLINK-5921,1 55926U 23037N   24042.94161346 -.00000635  00000-0 -45409-4 0  9990,2 55926  70.0010  32.6088 0002427 261.2238  98.8646 14.98323500 50622,6950.213,96.107,573.765,570.391,0.0
55926.0,STARLINK-5921,PAYLOAD,2024-02-12 03:24:21,14.98303957,0.0003239,70.0004,32.1039,276.8909,83.1881,-0.00026366,-3.235e-05,0.0,0 STARLINK-5921,1 55926U 23037N   24043.14191315 -.00003235  00000-0 -26366-3 0  9991,2 55926  70.0004  32.1039 0003239 276.8909  83.1881 14.98303957 50997,6950.273,96.109,574.39,569.887,0.0
55926.0,STARLINK-5921,PAYLOAD,2024-02-12 09:48:53,14.98303485,0.0002821,70.0008,31.4302,264.803,95.2807,-0.00024685,-3.035e-05,0.0,0 STARLINK-5921,1 55926U 23037N   24043.40895642 -.00003035  00000-0 -24685-3 0  9994,2 55926  70.0008  31.4302 0002821 264.8030  95.2807 14.98303485 50699,6950.275,96.109,574.101,570.179,0.0
